COMMENT,ORIGINATOR,NORAD_CAT_ID,OBJECT_NAME,OBJECT_TYPE,CLASSIFICATION_TYPE,INTLDES,EPOCH,EPOCH_MICROSECONDS,MEAN_MOTION,ECCENTRICITY,INCLINATION,RA_OF_ASC_NODE,ARG_OF_PERICENTER,MEAN_ANOMALY,EPHEMERIS_TYPE,ELEMENT_SET_NO,REV_AT_EPOCH,BSTAR,MEAN_MOTION_DOT,MEAN_MOTION_DDOT,FILE,TLE_LINE0,TLE_LINE1,TLE_LINE2,OBJECT_ID,OBJECT_NUMBER,SEMIMAJOR_AXIS,PERIOD,APOGEE,PERIGEE,DECAYED,date
GENERATED VIA SPACETRACK.ORG API,18 SPCS,48897,SPACEBEE-109,PAYLOAD,U,21059U,2023/4/15 21:07,346368,15.28381614,0.0007952,97.5873,241.8534,137.1903,222.9956,0,999,9988,0.0017333,0.00048122,0,3888171,0 SPACEBEE-109,1 48897U 21059U   23105.87986512  .00048122  00000-0  17333-2 0  9996,2 48897  97.5873 241.8534 0007952 137.1903 222.9956 15.28381614 99889,2021-059U,48897,6858.787,94.217,486.106,475.198,0,
GENERATED VIA SPACETRACK.ORG API,18 SPCS,48897,SPACEBEE-109,PAYLOAD,U,21059U,2023/4/16 8:06,448576,15.28424133,0.0007887,97.5872,242.3202,135.6862,224.501,0,999,9995,0.0016631,0.00046217,0,3888626,0 SPACEBEE-109,1 48897U 21059U   23106.33815334  .00046217  00000-0  16631-2 0  9994,2 48897  97.5872 242.3202 0007887 135.6862 224.5010 15.28424133 99951,2021-059U,48897,6858.66,94.215,485.934,475.115,0,
GENERATED VIA SPACETRACK.ORG API,18 SPCS,48897,SPACEBEE-109,PAYLOAD,U,21059U,2023/4/16 20:41,731456,15.28475053,0.0007777,97.5873,242.854,133.1534,227.0356,0,999,10003,0.0016492,0.00045899,0,3888799,0 SPACEBEE-109,1 48897U 21059U   23106.86189504  .00045899  00000-0  16492-2 0  9995,2 48897  97.5873 242.8540 0007777 133.1534 227.0356 15.28475053100039,2021-059U,48897,6858.507,94.212,485.706,475.038,0,
GENERATED VIA SPACETRACK.ORG API,18 SPCS,48897,SPACEBEE-109,PAYLOAD,U,21059U,2023/4/17 7:41,364352,15.28519168,0.0007844,97.5872,243.3211,132.0009,228.1899,0,999,10010,0.0016857,0.00046987,0,3889215,0 SPACEBEE-109,1 48897U 21059U   23107.32015468  .00046987  00000-0  16857-2 0  9998,2 48897  97.5872 243.3211 0007844 132.0009 228.1899 15.28519168100107,2021-059U,48897,6858.375,94.209,485.62,474.861,0,
GENERATED VIA SPACETRACK.ORG API,18 SPCS,48897,SPACEBEE-109,PAYLOAD,U,21059U,2023/4/17 21:49,869216,15.28576303,0.0007853,97.5877,243.9216,129.7716,230.4216,0,999,10019,0.0017497,0.00048871,0,3889391,0 SPACEBEE-109,1 48897U 21059U   23107.90932719  .00048871  00000-0  17497-2 0  9994,2 48897  97.5877 243.9216 0007853 129.7716 230.4216 15.28576303100193,2021-059U,48897,6858.204,94.205,485.455,474.684,0,
GENERATED VIA SPACETRACK.ORG API,18 SPCS,48897,SPACEBEE-109,PAYLOAD,U,21059U,2023/4/18 4:06,523456,15.28597218,0.000785,97.5878,244.1885,128.7275,231.4667,0,999,10023,0.0016467,0.00046001,0,3889477,0 SPACEBEE-109,1 48897U 21059U   23108.17117504  .00046001  00000-0  16467-2 0  9990,2 48897  97.5878 244.1885 0007850 128.7275 231.4667 15.28597218100239,2021-059U,48897,6858.142,94.204,485.391,474.623,0,
GENERATED VIA SPACETRACK.ORG API,18 SPCS,48897,SPACEBEE-109,PAYLOAD,U,21059U,2023/4/18 8:49,6880,15.28615698,0.0007854,97.5881,244.3883,128.3009,231.8938,0,999,10026,0.0016099,0.00044991,0,3889684,0 SPACEBEE-109,1 48897U 21059U   23108.36755795  .00044991  00000-0  16099-2 0  9998,2 48897  97.5881 244.3883 0007854 128.3009 231.8938 15.28615698100269,2021-059U,48897,6858.087,94.203,485.338,474.565,0,
GENERATED VIA SPACETRACK.ORG API,18 SPCS,48897,SPACEBEE-109,PAYLOAD,U,21059U,2023/4/19 8:23,500224,15.28708944,0.0007765,97.5884,245.3889,125.1367,235.0601,0,999,10041,0.001778,0.0004987,0,3890277,0 SPACEBEE-109,1 48897U 21059U   23109.34943866  .00049870  00000-0  17780-2 0  9994,2 48897  97.5884 245.3889 0007765 125.1367 235.0601 15.28708944100419,2021-059U,48897,6857.808,94.197,484.998,474.348,0,
GENERATED VIA SPACETRACK.ORG API,18 SPCS,48897,SPACEBEE-109,PAYLOAD,U,21059U,2023/4/19 8:23,500224,15.28708944,0.0007765,97.5884,245.3889,125.1367,235.0601,0,999,10041,0.001778,0.0004987,0,3890383,0 SPACEBEE-109,1 48897U 21059U   23109.34943866  .00049870  00000-0  17780-2 0  9994,2 48897  97.5884 245.3889 0007765 125.1367 235.0601 15.28708944100419,2021-059U,48897,6857.808,94.197,484.998,474.348,0,
GENERATED VIA SPACETRACK.ORG API,18 SPCS,48897,SPACEBEE-109,PAYLOAD,U,21059U,2023/4/20 7:57,954720,15.28792789,0.0007627,97.589,246.3897,121.7202,238.4782,0,999,10056,0.0014443,0.00040548,0,3890827,0 SPACEBEE-109,1 48897U 21059U   23110.33126105  .00040548  00000-0  14443-2 0  9990,2 48897  97.5890 246.3897 0007627 121.7202 238.4782 15.28792789100566,2021-059U,48897,6857.557,94.192,484.652,474.192,0,
GENERATED VIA SPACETRACK.ORG API,18 SPCS,48897,SPACEBEE-109,PAYLOAD,U,21059U,2023/4/20 7:57,954720,15.28792789,0.0007627,97.589,246.3897,121.7202,238.4782,0,999,10056,0.0014443,0.00040548,0,3890924,0 SPACEBEE-109,1 48897U 21059U   23110.33126105  .00040548  00000-0  14443-2 0  9990,2 48897  97.5890 246.3897 0007627 121.7202 238.4782 15.28792789100566,2021-059U,48897,6857.557,94.192,484.652,474.192,0,
GENERATED VIA SPACETRACK.ORG API,18 SPCS,48897,SPACEBEE-109,PAYLOAD,U,21059U,2023/4/21 4:22,170240,15.28859174,0.0007617,97.5895,247.2572,118.6869,241.5137,0,999,10069,0.0013554,0.00038113,0,3891529,0 SPACEBEE-109,1 48897U 21059U   23111.18213160  .00038113  00000-0  13554-2 0  9999,2 48897  97.5895 247.2572 0007617 118.6869 241.5137 15.28859174100699,2021-059U,48897,6857.358,94.188,484.447,474,0,
GENERATED VIA SPACETRACK.ORG API,18 SPCS,48897,SPACEBEE-109,PAYLOAD,U,21059U,2023/4/21 9:05,754080,15.28875257,0.0007617,97.5896,247.4573,118.0551,242.146,0,999,10072,0.0013345,0.00037539,0,3891601,0 SPACEBEE-109,1 48897U 21059U   23111.37848095  .00037539  00000-0  13345-2 0  9990,2 48897  97.5896 247.4573 0007617 118.0551 242.1460 15.28875257100725,2021-059U,48897,6857.31,94.187,484.399,473.952,0,
GENERATED VIA SPACETRACK.ORG API,18 SPCS,48897,SPACEBEE-109,PAYLOAD,U,21059U,2023/4/21 9:05,754080,15.28875257,0.0007617,97.5896,247.4573,118.0551,242.146,0,999,10072,0.0013345,0.00037539,0,3891716,0 SPACEBEE-109,1 48897U 21059U   23111.37848095  .00037539  00000-0  13345-2 0  9990,2 48897  97.5896 247.4573 0007617 118.0551 242.1460 15.28875257100725,2021-059U,48897,6857.31,94.187,484.399,473.952,0,
GENERATED VIA SPACETRACK.ORG API,18 SPCS,48897,SPACEBEE-109,PAYLOAD,U,21059U,2023/4/23 3:29,420992,15.29011479,0.0007478,97.5901,249.2592,112.1482,248.0552,0,999,10099,0.0012464,0.0003519,0,3892365,0 SPACEBEE-109,1 48897U 21059U   23113.14553728  .00035190  00000-0  12464-2 0  9995,2 48897  97.5901 249.2592 0007478 112.1482 248.0552 15.29011479100991,2021-059U,48897,6856.903,94.178,483.896,473.64,0,
GENERATED VIA SPACETRACK.ORG API,18 SPCS,48897,SPACEBEE-109,PAYLOAD,U,21059U,2023/4/23 8:12,332992,15.29026675,0.0007442,97.5901,249.4594,111.5766,248.6267,0,999,10102,0.0012631,0.00035681,0,3892688,0 SPACEBEE-109,1 48897U 21059U   23113.34186728  .00035681  00000-0  12631-2 0  9990,2 48897  97.5901 249.4594 0007442 111.5766 248.6267 15.29026675101022,2021-059U,48897,6856.858,94.178,483.826,473.62,0,
GENERATED VIA SPACETRACK.ORG API,18 SPCS,48897,SPACEBEE-109,PAYLOAD,U,21059U,2023/4/24 3:03,956640,15.29106296,0.0007382,97.5904,250.2603,108.3769,251.8274,0,999,10114,0.0018569,0.00052739,0,3892918,0 SPACEBEE-109,1 48897U 21059U   23114.12716385  .00052739  00000-0  18569-2 0  9994,2 48897  97.5904 250.2603 0007382 108.3769 251.8274 15.29106296101141,2021-059U,48897,6856.62,94.173,483.546,473.423,0,
GENERATED VIA SPACETRACK.ORG API,18 SPCS,48897,SPACEBEE-109,PAYLOAD,U,21059U,2023/4/24 3:03,956640,15.29106296,0.0007382,97.5904,250.2603,108.3769,251.8274,0,999,10114,0.0018569,0.00052739,0,3893330,0 SPACEBEE-109,1 48897U 21059U   23114.12716385  .00052739  00000-0  18569-2 0  9994,2 48897  97.5904 250.2603 0007382 108.3769 251.8274 15.29106296101141,2021-059U,48897,6856.62,94.173,483.546,473.423,0,
GENERATED VIA SPACETRACK.ORG API,18 SPCS,48897,SPACEBEE-109,PAYLOAD,U,21059U,2023/4/24 7:45,565728,15.29141314,0.0007424,97.5899,250.4606,108.8023,251.4022,0,999,10117,0.0022291,0.00063484,0,3893703,0 SPACEBEE-109,1 48897U 21059U   23114.32347877  .00063484  00000-0  22291-2 0  9998,2 48897  97.5899 250.4606 0007424 108.8023 251.4022 15.29141314101174,2021-059U,48897,6856.515,94.17,483.47,473.29,0,
GENERATED VIA SPACETRACK.ORG API,18 SPCS,48897,SPACEBEE-109,PAYLOAD,U,21059U,2023/4/25 8:53,893824,15.29239773,0.0007391,97.5906,251.5289,104.5539,255.652,0,999,10133,0.001264,0.00035942,0,3893969,0 SPACEBEE-109,1 48897U 21059U   23115.37045016  .00035942  00000-0  12640-2 0  9999,2 48897  97.5906 251.5289 0007391 104.5539 255.6520 15.29239773101334,2021-059U,48897,6856.221,94.164,483.153,473.018,0,
GENERATED VIA SPACETRACK.ORG API,18 SPCS,48897,SPACEBEE-109,PAYLOAD,U,21059U,2023/4/25 8:53,893824,15.29239773,0.0007391,97.5906,251.5289,104.5539,255.652,0,999,10133,0.001264,0.00035942,0,3894092,0 SPACEBEE-109,1 48897U 21059U   23115.37045016  .00035942  00000-0  12640-2 0  9999,2 48897  97.5906 251.5289 0007391 104.5539 255.6520 15.29239773101334,2021-059U,48897,6856.221,94.164,483.153,473.018,0,
GENERATED VIA SPACETRACK.ORG API,18 SPCS,48897,SPACEBEE-109,PAYLOAD,U,21059U,2023/4/25 23:01,883200,15.29270773,0.0007384,97.5906,252.1296,102.5581,257.6485,0,999,10142,0.0010353,0.00029427,0,3894201,0 SPACEBEE-109,1 48897U 21059U   23115.95935050  .00029427  00000-0  10353-2 0  9999,2 48897  97.5906 252.1296 0007384 102.5581 257.6485 15.29270773101423,2021-059U,48897,6856.128,94.163,483.056,472.93,0,
GENERATED VIA SPACETRACK.ORG API,18 SPCS,48897,SPACEBEE-109,PAYLOAD,U,21059U,2023/4/26 8:26,946912,15.29291895,0.0007326,97.5903,252.5302,101.3312,258.8751,0,999,10148,0.0010322,0.00029357,0,3894260,0 SPACEBEE-109,1 48897U 21059U   23116.35194383  .00029357  00000-0  10322-2 0  9998,2 48897  97.5903 252.5302 0007326 101.3312 258.8751 15.29291895101480,2021-059U,48897,6856.065,94.161,482.953,472.907,0,
